{
  "type": "FeatureCollection",
  "features": [
    {
      "type": "Feature",
      "properties": {
        "norad_id": 32376,
        "name": "COSMO-SKYMED 2",
        "group": "resource",
        "lat": 79.27584215900887,
        "lon": 122.69505790847471,
        "alt_km": 614.0786153228428,
        "timestamp": "2025-12-14T09:36:22.691081+00:00",
        "meta_object_name": "COSMO-SKYMED 2",
        "meta_object_id": "2007-059A",
        "meta_epoch": "2025-12-13T15:24:43.191648",
        "meta_mean_motion": 14.82167859,
        "meta_eccentricity": 0.00014984,
        "meta_inclination": 97.8811,
        "meta_ra_of_asc_node": 168.9524,
        "meta_arg_of_pericenter": 84.1298,
        "meta_mean_anomaly": 276.0086,
        "meta_ephemeris_type": 0,
        "meta_classification_type": "U",
        "meta_norad_cat_id": 32376,
        "meta_element_set_no": 999,
        "meta_rev_at_epoch": 97451,
        "meta_bstar": 0.00011139453,
        "meta_mean_motion_dot": 8.35e-06,
        "meta_mean_motion_ddot": 0,
        "tle_line1": "1 32376U 07059A   25347.64216657  .00000835  00000+0  11139-3 0  9993",
        "tle_line2": "2 32376  97.8811 168.9524 0001498  84.1298 276.0086 14.82167859974512"
      },
      "geometry": {
        "type": "Point",
        "coordinates": [
          122.69505790847471,
          79.27584215900887
        ]
      }
    },
    {
      "type": "Feature",
      "properties": {
        "norad_id": 32382,
        "name": "RADARSAT-2",
        "group": "resource",
        "lat": 76.98257503922609,
        "lon": -47.80684166393596,
        "alt_km": 783.7178639485337,
        "timestamp": "2025-12-14T09:36:22.691091+00:00",
        "meta_object_name": "RADARSAT-2",
        "meta_object_id": "2007-061A",
        "meta_epoch": "2025-12-13T14:45:37.825632",
        "meta_mean_motion": 14.29982385,
        "meta_eccentricity": 0.00011214,
        "meta_inclination": 98.5803,
        "meta_ra_of_asc_node": 352.1924,
        "meta_arg_of_pericenter": 85.6821,
        "meta_mean_anomaly": 274.449,
        "meta_ephemeris_type": 0,
        "meta_classification_type": "U",
        "meta_norad_cat_id": 32382,
        "meta_element_set_no": 999,
        "meta_rev_at_epoch": 93943,
        "meta_bstar": 9.7682157e-05,
        "meta_mean_motion_dot": 2.08e-06,
        "meta_mean_motion_ddot": 0,
        "tle_line1": "1 32382U 07061A   25347.61502113  .00000208  00000+0  97682-4 0  9997",
        "tle_line2": "2 32382  98.5803 352.1924 0001121  85.6821 274.4490 14.29982385939433"
      },
      "geometry": {
        "type": "Point",
        "coordinates": [
          -47.80684166393596,
          76.98257503922609
        ]
      }
    },
    {
      "type": "Feature",
      "properties": {
        "norad_id": 32783,
        "name": "CARTOSAT-2A",
        "group": "resource",
        "lat": -22.957219809518804,
        "lon": -145.15412206346335,
        "alt_km": 645.706705552936,
        "timestamp": "2025-12-14T09:36:22.691101+00:00",
        "meta_object_name": "CARTOSAT-2A",
        "meta_object_id": "2008-021A",
        "meta_epoch": "2025-12-13T16:27:10.617120",
        "meta_mean_motion": 14.78939786,
        "meta_eccentricity": 0.00117981,
        "meta_inclination": 97.7931,
        "meta_ra_of_asc_node": 37.4792,
        "meta_arg_of_pericenter": 1.7064,
        "meta_mean_anomaly": 358.4186,
        "meta_ephemeris_type": 0,
        "meta_classification_type": "U",
        "meta_norad_cat_id": 32783,
        "meta_element_set_no": 999,
        "meta_rev_at_epoch": 95138,
        "meta_bstar": 0.00016996148,
        "meta_mean_motion_dot": 1.205e-05,
        "meta_mean_motion_ddot": 0,
        "tle_line1": "1 32783U 08021A   25347.68553955  .00001205  00000+0  16996-3 0  9992",
        "tle_line2": "2 32783  97.7931  37.4792 0011798   1.7064 358.4186 14.78939786951380"
      },
      "geometry": {
        "type": "Point",
        "coordinates": [
          -145.15412206346335,
          -22.957219809518804
        ]
      }
    },
    {
      "type": "Feature",
      "properties": {
        "norad_id": 33320,
        "name": "HUANJING 1A (HJ-1A)",
        "group": "resource",
        "lat": 80.6897582498446,
        "lon": -148.2543521831145,
        "alt_km": 605.5504861596664,
        "timestamp": "2025-12-14T09:36:22.691111+00:00",
        "meta_object_name": "HUANJING 1A (HJ-1A)",
        "meta_object_id": "2008-041A",
        "meta_epoch": "2025-12-13T15:22:18.642720",
        "meta_mean_motion": 14.8339626,
        "meta_eccentricity": 0.00200551,
        "meta_inclination": 97.6542,
        "meta_ra_of_asc_node": 335.9013,
        "meta_arg_of_pericenter": 31.4618,
        "meta_mean_anomaly": 328.7792,
        "meta_ephemeris_type": 0,
        "meta_classification_type": "U",
        "meta_norad_cat_id": 33320,
        "meta_element_set_no": 999,
        "meta_rev_at_epoch": 93089,
        "meta_bstar": 0.00014609116,
        "meta_mean_motion_dot": 1.151e-05,
        "meta_mean_motion_ddot": 0,
        "tle_line1": "1 33320U 08041A   25347.64049355  .00001151  00000+0  14609-3 0  9991",
        "tle_line2": "2 33320  97.6542 335.9013 0020055  31.4618 328.7792 14.83396260930894"
      },
      "geometry": {
        "type": "Point",
        "coordinates": [
          -148.2543521831145,
          80.6897582498446
        ]
      }
    },
    {
      "type": "Feature",
      "properties": {
        "norad_id": 33321,
        "name": "HUANJING 1B (HJ-1B)",
        "group": "resource",
        "lat": -47.149912761636,
        "lon": -11.357664480492511,
        "alt_km": 639.7146325147023,
        "timestamp": "2025-12-14T09:36:22.691122+00:00",
        "meta_object_name": "HUANJING 1B (HJ-1B)",
        "meta_object_id": "2008-041B",
        "meta_epoch": "2025-12-13T16:00:23.082912",
        "meta_mean_motion": 14.8282418,
        "meta_eccentricity": 0.00381694,
        "meta_inclination": 97.6402,
        "meta_ra_of_asc_node": 339.6213,
        "meta_arg_of_pericenter": 72.7957,
        "meta_mean_anomaly": 287.743,
        "meta_ephemeris_type": 0,
        "meta_classification_type": "U",
        "meta_norad_cat_id": 33321,
        "meta_element_set_no": 999,
        "meta_rev_at_epoch": 93091,
        "meta_bstar": 0.0002217956,
        "meta_mean_motion_dot": 1.766e-05,
        "meta_mean_motion_ddot": 0,
        "tle_line1": "1 33321U 08041B   25347.66693383  .00001766  00000+0  22180-3 0  9995",
        "tle_line2": "2 33321  97.6402 339.6213 0038169  72.7957 287.7430 14.82824180930914"
      },
      "geometry": {
        "type": "Point",
        "coordinates": [
          -11.357664480492511,
          -47.149912761636
        ]
      }
    },
    {
      "type": "Feature",
      "properties": {
        "norad_id": 33331,
        "name": "GEOEYE 1",
        "group": "resource",
        "lat": -11.50779700472238,
        "lon": -122.00658353324167,
        "alt_km": 681.6326399341242,
        "timestamp": "2025-12-14T09:36:22.691132+00:00",
        "meta_object_name": "GEOEYE 1",
        "meta_object_id": "2008-042A",
        "meta_epoch": "2025-12-13T16:20:25.293120",
        "meta_mean_motion": 14.64814494,
        "meta_eccentricity": 0.00027227,
        "meta_inclination": 98.1252,
        "meta_ra_of_asc_node": 58.9498,
        "meta_arg_of_pericenter": 271.8673,
        "meta_mean_anomaly": 88.2218,
        "meta_ephemeris_type": 0,
        "meta_classification_type": "U",
        "meta_norad_cat_id": 33331,
        "meta_element_set_no": 999,
        "meta_rev_at_epoch": 92299,
        "meta_bstar": 0.00017623615,
        "meta_mean_motion_dot": 8.93e-06,
        "meta_mean_motion_ddot": 0,
        "tle_line1": "1 33331U 08042A   25347.68084830  .00000893  00000+0  17624-3 0  9997",
        "tle_line2": "2 33331  98.1252  58.9498 0002722 271.8673  88.2218 14.64814494922997"
      },
      "geometry": {
        "type": "Point",
        "coordinates": [
          -122.00658353324167,
          -11.50779700472238
        ]
      }
    },
    {
      "type": "Feature",
      "properties": {
        "norad_id": 33396,
        "name": "THEOS",
        "group": "resource",
        "lat": 37.964930775495155,
        "lon": -126.78885654707425,
        "alt_km": 821.6134580677808,
        "timestamp": "2025-12-14T09:36:22.691143+00:00",
        "meta_object_name": "THEOS",
        "meta_object_id": "2008-049A",
        "meta_epoch": "2025-12-13T16:01:57.982944",
        "meta_mean_motion": 14.20096163,
        "meta_eccentricity": 0.00011806,
        "meta_inclination": 98.5865,
        "meta_ra_of_asc_node": 45.7299,
        "meta_arg_of_pericenter": 96.1394,
        "meta_mean_anomaly": 263.9918,
        "meta_ephemeris_type": 0,
        "meta_classification_type": "U",
        "meta_norad_cat_id": 33396,
        "meta_element_set_no": 999,
        "meta_rev_at_epoch": 89163,
        "meta_bstar": 2.2289911e-05,
        "meta_mean_motion_dot": 5e-08,
        "meta_mean_motion_ddot": 0,
        "tle_line1": "1 33396U 08049A   25347.66803221  .00000005  00000+0  22290-4 0  9997",
        "tle_line2": "2 33396  98.5865  45.7299 0001180  96.1394 263.9918 14.20096163891632"
      },
      "geometry": {
        "type": "Point",
        "coordinates": [
          -126.78885654707425,
          37.964930775495155
        ]
      }
    }
  ]
}